HULIANWANG DIGUI-76     
1 65308U 25187D   26204.85018554 -.00000101  00000+0  49086-4 0  9998
2 65308  50.0015  74.5018 0000121  93.1109 266.9777 13.29324145 44575
HULIANWANG DIGUI-77     
1 65309U 25187E   26204.84173032 -.00000101  00000+0  49595-4 0  9996
2 65309  50.0049  74.5480 0000170 178.4784 181.6089 13.29324064 44575
HULIANWANG DIGUI-78     
1 65310U 25187F   26204.80008546 -.00000110  00000+0  30848-4 0  9992
2 65310  50.0114  74.5053 0000072  66.7626 293.3254 13.29323110 44577
HULIANWANG DIGUI-79     
1 65311U 25187G   26204.85849637 -.00000103  00000+0  44478-4 0  9998
2 65311  50.0044  74.6220 0000080  22.3636 337.7240 13.29319887 44579
HULIANWANG DIGUI-80     
1 65312U 25187H   26204.83339961 -.00000096  00000+0  60861-4 0  9996
2 65312  50.0034  74.4677 0000159 179.2192 180.8681 13.29323256 44570
HULIANWANG DIGUI-81     
1 65313U 25187J   26204.81679161 -.00000096  00000+0  61449-4 0  9997
2 65313  50.0074  74.4869 0000044  62.9107 297.1769 13.29320118 44589
HULIANWANG DIGUI-82     
1 65817U 25220A   26204.50303404  .00000023  00000+0  19591-4 0  9994
2 65817  86.4953  31.5916 0002284  97.5510 262.5884 13.24409820 39721
HULIANWANG DIGUI-83     
1 65818U 25220B   26204.49554347  .00000037  00000+0  52770-4 0  9998
2 65818  86.4976  31.6550 0002281  96.2366 263.9028 13.24410158 39725
HULIANWANG DIGUI-84     
1 65819U 25220C   26204.48795233  .00000045  00000+0  70986-4 0  9997
2 65819  86.4913  31.4640 0002243  97.5108 262.6281 13.24409948 39723
HULIANWANG DIGUI-85     
1 65820U 25220D   26204.48040141  .00000051  00000+0  85306-4 0  9999
2 65820  86.4974  31.6428 0002236  99.8934 260.2453 13.24408854 39722
HULIANWANG DIGUI-86     
1 65821U 25220E   26204.01968252  .00000049  00000+0  79991-4 0  9991
2 65821  86.4953  31.7285 0002008  84.3685 275.7678 13.24411612 39660
HULIANWANG DIGUI-87     
1 65995U 25231A   26203.95051484 -.00000118  00000+0  14032-4 0  9990
2 65995  50.0011  47.5635 0000428  20.9669 339.1220 13.29328332 37645
HULIANWANG DIGUI-88     
1 65996U 25231B   26204.56035218 -.00000115  00000+0  20475-4 0  9991
2 65996  49.9997  45.4222 0000436   4.5181 355.5695 13.29323977 37728
HULIANWANG DIGUI-89     
1 65997U 25231C   26202.58891427 -.00000116  00000+0  17773-4 0  9992
2 65997  49.9974  52.2977 0000490   5.0591 355.0285 13.29328227 37462
HULIANWANG DIGUI-90     
1 65998U 25231D   26204.53530325 -.00000104  00000+0  43462-4 0  9998
2 65998  50.0003  45.3072 0000485   5.5993 354.4885 13.29326673 37724
HULIANWANG DIGUI-91     
1 65999U 25231E   26204.60212213 -.00000106  00000+0  38291-4 0  9996
2 65999  50.0021  45.0376 0000465   7.4688 352.6191 13.29327312 37731
