{"fetched_at":"2026-07-24T07:06:33.741Z","source":"https://celestrak.org/NORAD/elements/gp.php?NAME=HULIANWANG&FORMAT=JSON","constellation":"guowang","records":[{"OBJECT_NAME":"HULIANWANG DIGUI-76","OBJECT_ID":"2025-187D","EPOCH":"2026-07-23T20:24:16.030656","CLASSIFICATION_TYPE":"U","MEAN_MOTION":13.29324145,"ECCENTRICITY":0.0000121,"INCLINATION":50.0015,"RA_OF_ASC_NODE":74.5018,"ARG_OF_PERICENTER":93.1109,"MEAN_ANOMALY":266.9777,"EPHEMERIS_TYPE":0,"NORAD_CAT_ID":65308,"ELEMENT_SET_NO":999,"REV_AT_EPOCH":4457,"BSTAR":0.000049086,"MEAN_MOTION_DOT":-0.00000101,"MEAN_MOTION_DDOT":0},{"OBJECT_NAME":"HULIANWANG DIGUI-77","OBJECT_ID":"2025-187E","EPOCH":"2026-07-23T20:12:05.499648","CLASSIFICATION_TYPE":"U","MEAN_MOTION":13.29324064,"ECCENTRICITY":0.000017,"INCLINATION":50.0049,"RA_OF_ASC_NODE":74.548,"ARG_OF_PERICENTER":178.4784,"MEAN_ANOMALY":181.6089,"EPHEMERIS_TYPE":0,"NORAD_CAT_ID":65309,"ELEMENT_SET_NO":999,"REV_AT_EPOCH":4457,"BSTAR":0.000049595,"MEAN_MOTION_DOT":-0.00000101,"MEAN_MOTION_DDOT":0},{"OBJECT_NAME":"HULIANWANG DIGUI-78","OBJECT_ID":"2025-187F","EPOCH":"2026-07-23T19:12:07.383744","CLASSIFICATION_TYPE":"U","MEAN_MOTION":13.2932311,"ECCENTRICITY":0.0000072,"INCLINATION":50.0114,"RA_OF_ASC_NODE":74.5053,"ARG_OF_PERICENTER":66.7626,"MEAN_ANOMALY":293.3254,"EPHEMERIS_TYPE":0,"NORAD_CAT_ID":65310,"ELEMENT_SET_NO":999,"REV_AT_EPOCH":4457,"BSTAR":0.000030848,"MEAN_MOTION_DOT":-0.0000011,"MEAN_MOTION_DDOT":0},{"OBJECT_NAME":"HULIANWANG DIGUI-79","OBJECT_ID":"2025-187G","EPOCH":"2026-07-23T20:36:14.086368","CLASSIFICATION_TYPE":"U","MEAN_MOTION":13.29319887,"ECCENTRICITY":0.000008,"INCLINATION":50.0044,"RA_OF_ASC_NODE":74.622,"ARG_OF_PERICENTER":22.3636,"MEAN_ANOMALY":337.724,"EPHEMERIS_TYPE":0,"NORAD_CAT_ID":65311,"ELEMENT_SET_NO":999,"REV_AT_EPOCH":4457,"BSTAR":0.000044478,"MEAN_MOTION_DOT":-0.00000103,"MEAN_MOTION_DDOT":0},{"OBJECT_NAME":"HULIANWANG DIGUI-80","OBJECT_ID":"2025-187H","EPOCH":"2026-07-23T20:00:05.726304","CLASSIFICATION_TYPE":"U","MEAN_MOTION":13.29323256,"ECCENTRICITY":0.0000159,"INCLINATION":50.0034,"RA_OF_ASC_NODE":74.4677,"ARG_OF_PERICENTER":179.2192,"MEAN_ANOMALY":180.8681,"EPHEMERIS_TYPE":0,"NORAD_CAT_ID":65312,"ELEMENT_SET_NO":999,"REV_AT_EPOCH":4457,"BSTAR":0.000060861,"MEAN_MOTION_DOT":-9.6e-7,"MEAN_MOTION_DDOT":0},{"OBJECT_NAME":"HULIANWANG DIGUI-81","OBJECT_ID":"2025-187J","EPOCH":"2026-07-23T19:36:10.795104","CLASSIFICATION_TYPE":"U","MEAN_MOTION":13.29320118,"ECCENTRICITY":0.0000044,"INCLINATION":50.0074,"RA_OF_ASC_NODE":74.4869,"ARG_OF_PERICENTER":62.9107,"MEAN_ANOMALY":297.1769,"EPHEMERIS_TYPE":0,"NORAD_CAT_ID":65313,"ELEMENT_SET_NO":999,"REV_AT_EPOCH":4458,"BSTAR":0.000061449,"MEAN_MOTION_DOT":-9.6e-7,"MEAN_MOTION_DDOT":0},{"OBJECT_NAME":"HULIANWANG DIGUI-82","OBJECT_ID":"2025-220A","EPOCH":"2026-07-23T12:04:22.141056","CLASSIFICATION_TYPE":"U","MEAN_MOTION":13.2440982,"ECCENTRICITY":0.0002284,"INCLINATION":86.4953,"RA_OF_ASC_NODE":31.5916,"ARG_OF_PERICENTER":97.551,"MEAN_ANOMALY":262.5884,"EPHEMERIS_TYPE":0,"NORAD_CAT_ID":65817,"ELEMENT_SET_NO":999,"REV_AT_EPOCH":3972,"BSTAR":0.000019591,"MEAN_MOTION_DOT":2.3e-7,"MEAN_MOTION_DDOT":0},{"OBJECT_NAME":"HULIANWANG DIGUI-83","OBJECT_ID":"2025-220B","EPOCH":"2026-07-23T11:53:34.955808","CLASSIFICATION_TYPE":"U","MEAN_MOTION":13.24410158,"ECCENTRICITY":0.0002281,"INCLINATION":86.4976,"RA_OF_ASC_NODE":31.655,"ARG_OF_PERICENTER":96.2366,"MEAN_ANOMALY":263.9028,"EPHEMERIS_TYPE":0,"NORAD_CAT_ID":65818,"ELEMENT_SET_NO":999,"REV_AT_EPOCH":3972,"BSTAR":0.00005277,"MEAN_MOTION_DOT":3.7e-7,"MEAN_MOTION_DDOT":0},{"OBJECT_NAME":"HULIANWANG DIGUI-84","OBJECT_ID":"2025-220C","EPOCH":"2026-07-23T11:42:39.081312","CLASSIFICATION_TYPE":"U","MEAN_MOTION":13.24409948,"ECCENTRICITY":0.0002243,"INCLINATION":86.4913,"RA_OF_ASC_NODE":31.464,"ARG_OF_PERICENTER":97.5108,"MEAN_ANOMALY":262.6281,"EPHEMERIS_TYPE":0,"NORAD_CAT_ID":65819,"ELEMENT_SET_NO":999,"REV_AT_EPOCH":3972,"BSTAR":0.000070986,"MEAN_MOTION_DOT":4.5e-7,"MEAN_MOTION_DDOT":0},{"OBJECT_NAME":"HULIANWANG DIGUI-85","OBJECT_ID":"2025-220D","EPOCH":"2026-07-23T11:31:46.681824","CLASSIFICATION_TYPE":"U","MEAN_MOTION":13.24408854,"ECCENTRICITY":0.0002236,"INCLINATION":86.4974,"RA_OF_ASC_NODE":31.6428,"ARG_OF_PERICENTER":99.8934,"MEAN_ANOMALY":260.2453,"EPHEMERIS_TYPE":0,"NORAD_CAT_ID":65820,"ELEMENT_SET_NO":999,"REV_AT_EPOCH":3972,"BSTAR":0.000085306,"MEAN_MOTION_DOT":5.1e-7,"MEAN_MOTION_DDOT":0},{"OBJECT_NAME":"HULIANWANG DIGUI-86","OBJECT_ID":"2025-220E","EPOCH":"2026-07-23T00:28:20.569728","CLASSIFICATION_TYPE":"U","MEAN_MOTION":13.24411612,"ECCENTRICITY":0.00020084,"INCLINATION":86.4953,"RA_OF_ASC_NODE":31.7285,"ARG_OF_PERICENTER":84.3685,"MEAN_ANOMALY":275.7678,"EPHEMERIS_TYPE":0,"NORAD_CAT_ID":65821,"ELEMENT_SET_NO":999,"REV_AT_EPOCH":3966,"BSTAR":0.000079990807,"MEAN_MOTION_DOT":4.9e-7,"MEAN_MOTION_DDOT":0},{"OBJECT_NAME":"HULIANWANG DIGUI-87","OBJECT_ID":"2025-231A","EPOCH":"2026-07-22T22:48:44.482176","CLASSIFICATION_TYPE":"U","MEAN_MOTION":13.29328332,"ECCENTRICITY":0.00004282,"INCLINATION":50.0011,"RA_OF_ASC_NODE":47.5635,"ARG_OF_PERICENTER":20.9669,"MEAN_ANOMALY":339.122,"EPHEMERIS_TYPE":0,"NORAD_CAT_ID":65995,"ELEMENT_SET_NO":999,"REV_AT_EPOCH":3764,"BSTAR":0.000014032497,"MEAN_MOTION_DOT":-0.00000118,"MEAN_MOTION_DDOT":0},{"OBJECT_NAME":"HULIANWANG DIGUI-88","OBJECT_ID":"2025-231B","EPOCH":"2026-07-23T13:26:54.428352","CLASSIFICATION_TYPE":"U","MEAN_MOTION":13.29323977,"ECCENTRICITY":0.0000436,"INCLINATION":49.9997,"RA_OF_ASC_NODE":45.4222,"ARG_OF_PERICENTER":4.5181,"MEAN_ANOMALY":355.5695,"EPHEMERIS_TYPE":0,"NORAD_CAT_ID":65996,"ELEMENT_SET_NO":999,"REV_AT_EPOCH":3772,"BSTAR":0.000020475,"MEAN_MOTION_DOT":-0.00000115,"MEAN_MOTION_DDOT":0},{"OBJECT_NAME":"HULIANWANG DIGUI-89","OBJECT_ID":"2025-231C","EPOCH":"2026-07-21T14:08:02.192928","CLASSIFICATION_TYPE":"U","MEAN_MOTION":13.29328227,"ECCENTRICITY":0.000049,"INCLINATION":49.9974,"RA_OF_ASC_NODE":52.2977,"ARG_OF_PERICENTER":5.0591,"MEAN_ANOMALY":355.0285,"EPHEMERIS_TYPE":0,"NORAD_CAT_ID":65997,"ELEMENT_SET_NO":999,"REV_AT_EPOCH":3746,"BSTAR":0.000017773219,"MEAN_MOTION_DOT":-0.00000116,"MEAN_MOTION_DDOT":0},{"OBJECT_NAME":"HULIANWANG DIGUI-90","OBJECT_ID":"2025-231D","EPOCH":"2026-07-23T12:50:50.200800","CLASSIFICATION_TYPE":"U","MEAN_MOTION":13.29326673,"ECCENTRICITY":0.0000485,"INCLINATION":50.0003,"RA_OF_ASC_NODE":45.3072,"ARG_OF_PERICENTER":5.5993,"MEAN_ANOMALY":354.4885,"EPHEMERIS_TYPE":0,"NORAD_CAT_ID":65998,"ELEMENT_SET_NO":999,"REV_AT_EPOCH":3772,"BSTAR":0.000043462,"MEAN_MOTION_DOT":-0.00000104,"MEAN_MOTION_DDOT":0},{"OBJECT_NAME":"HULIANWANG DIGUI-91","OBJECT_ID":"2025-231E","EPOCH":"2026-07-23T14:27:03.352032","CLASSIFICATION_TYPE":"U","MEAN_MOTION":13.29327312,"ECCENTRICITY":0.0000465,"INCLINATION":50.0021,"RA_OF_ASC_NODE":45.0376,"ARG_OF_PERICENTER":7.4688,"MEAN_ANOMALY":352.6191,"EPHEMERIS_TYPE":0,"NORAD_CAT_ID":65999,"ELEMENT_SET_NO":999,"REV_AT_EPOCH":3773,"BSTAR":0.000038291,"MEAN_MOTION_DOT":-0.00000106,"MEAN_MOTION_DDOT":0}]}
